IRIDIUM 124             
1 42810U 17039H   26073.97073136  .00000402  00000+0  11352-3 0  9999
2 42810  86.4526 329.7707 0002065  85.4919 274.6518 14.43279043461520
IRIDIUM 128             
1 42811U 17039J   26073.95188318  .00000040  00000+0  72336-5 0  9996
2 42811  86.3918  64.5415 0002159  94.3005 265.8438 14.34217648456478
IRIDIUM 121             
1 42812U 17039K   26073.91040515 -.00000039  00000+0 -21135-4 0  9999
2 42812  86.3983  33.0557 0002145  88.0672 272.0769 14.34217194456310
IRIDIUM 133             
1 42955U 17061A   26073.91382737  .00000082  00000+0  22204-4 0  9991
2 42955  86.3921  64.6729 0002177  90.2396 269.9050 14.34217983441266
IRIDIUM 100             
1 42956U 17061B   26073.90748461  .00000038  00000+0  66476-5 0  9992
2 42956  86.3918  64.5964 0002138  89.2654 270.8787 14.34217701441261
IRIDIUM 122             
1 42957U 17061C   26073.94553876  .00000032  00000+0  43412-5 0  9990
2 42957  86.3917  64.5802 0002079  88.2449 271.8985 14.34217524441272
IRIDIUM 129             
1 42958U 17061D   26073.90114126  .00000094  00000+0  26333-4 0  9998
2 42958  86.3920  64.6653 0002414  82.5979 277.5491 14.34218236441287
IRIDIUM 119             
1 42959U 17061E   26073.93919093  .00000189  00000+0  60435-4 0  9994
2 42959  86.3919  64.6444 0002143  85.1993 274.9448 14.34220112441300
IRIDIUM 107             
1 42960U 17061F   26073.88845570  .00000008  00000+0 -42991-5 0  9997
2 42960  86.3919  64.6867 0001750  91.3622 268.7774 14.34217504441306
IRIDIUM 132             
1 42961U 17061G   26073.89479874  .00000082  00000+0  22374-4 0  9992
2 42961  86.3919  64.6639 0002137  90.1513 269.9928 14.34217993441306
IRIDIUM 136             
1 42962U 17061H   26073.92651208  .00000006  00000+0 -48654-5 0  9997
2 42962  86.3922  64.6571 0002006  86.7415 273.4010 14.34217489441327
IRIDIUM 139             
1 42963U 17061J   26073.93285506  .00000046  00000+0  92896-5 0  9993
2 42963  86.3922  64.7147 0002147  90.9203 269.2239 14.34217849441333
IRIDIUM 125             
1 42964U 17061K   26073.92016792  .00000004  00000+0 -56167-5 0  9998
2 42964  86.3926  64.7798 0001616  77.3343 282.8034 14.34217591441343
IRIDIUM 135             
1 43070U 17083A   26073.82452460  .00000138  00000+0  42377-4 0  9990
2 43070  86.4029   1.4503 0002186  84.9527 275.1918 14.34216596430629
IRIDIUM 138             
1 43071U 17083B   26073.91966504  .00000161  00000+0  50302-4 0  9993
2 43071  86.4042   1.0920 0002100  73.5069 286.6357 14.34218840430623
IRIDIUM 116             
1 43072U 17083C   26073.88795360  .00000169  00000+0  53195-4 0  9991
2 43072  86.4025   1.4109 0002229  93.4274 266.7176 14.34218427430651
IRIDIUM 130             
1 43073U 17083D   26073.92600810  .00000046  00000+0  94497-5 0  9997
2 43073  86.4035   1.6610 0001968  91.9738 268.1683 14.34218093430602
