[{"OBJECT_NAME":"IRIDIUM 124","OBJECT_ID":"2017-039H","EPOCH":"2026-03-14T23:17:51.189504","MEAN_MOTION":14.43279043,"ECCENTRICITY":0.00020653,"INCLINATION":86.4526,"RA_OF_ASC_NODE":329.7707,"ARG_OF_PERICENTER":85.4919,"MEAN_ANOMALY":274.6518,"EPHEMERIS_TYPE":0,"CLASSIFICATION_TYPE":"U","NORAD_CAT_ID":42810,"ELEMENT_SET_NO":999,"REV_AT_EPOCH":46152,"BSTAR":0.00011352349,"MEAN_MOTION_DOT":4.02e-6,"MEAN_MOTION_DDOT":0},{"OBJECT_NAME":"IRIDIUM 128","OBJECT_ID":"2017-039J","EPOCH":"2026-03-14T22:50:42.706752","MEAN_MOTION":14.34217648,"ECCENTRICITY":0.00021594,"INCLINATION":86.3918,"RA_OF_ASC_NODE":64.5415,"ARG_OF_PERICENTER":94.3005,"MEAN_ANOMALY":265.8438,"EPHEMERIS_TYPE":0,"CLASSIFICATION_TYPE":"U","NORAD_CAT_ID":42811,"ELEMENT_SET_NO":999,"REV_AT_EPOCH":45647,"BSTAR":7.233564e-6,"MEAN_MOTION_DOT":4.0e-7,"MEAN_MOTION_DDOT":0},{"OBJECT_NAME":"IRIDIUM 121","OBJECT_ID":"2017-039K","EPOCH":"2026-03-14T21:50:59.004960","MEAN_MOTION":14.34217194,"ECCENTRICITY":0.00021451,"INCLINATION":86.3983,"RA_OF_ASC_NODE":33.0557,"ARG_OF_PERICENTER":88.0672,"MEAN_ANOMALY":272.0769,"EPHEMERIS_TYPE":0,"CLASSIFICATION_TYPE":"U","NORAD_CAT_ID":42812,"ELEMENT_SET_NO":999,"REV_AT_EPOCH":45631,"BSTAR":-2.1135481e-5,"MEAN_MOTION_DOT":-3.9e-7,"MEAN_MOTION_DDOT":0},{"OBJECT_NAME":"IRIDIUM 133","OBJECT_ID":"2017-061A","EPOCH":"2026-03-14T21:55:54.684768","MEAN_MOTION":14.34217983,"ECCENTRICITY":0.00021776,"INCLINATION":86.3921,"RA_OF_ASC_NODE":64.6729,"ARG_OF_PERICENTER":90.2396,"MEAN_ANOMALY":269.905,"EPHEMERIS_TYPE":0,"CLASSIFICATION_TYPE":"U","NORAD_CAT_ID":42955,"ELEMENT_SET_NO":999,"REV_AT_EPOCH":44126,"BSTAR":2.2204004e-5,"MEAN_MOTION_DOT":8.2e-7,"MEAN_MOTION_DDOT":0},{"OBJECT_NAME":"IRIDIUM 100","OBJECT_ID":"2017-061B","EPOCH":"2026-03-14T21:46:46.670304","MEAN_MOTION":14.34217701,"ECCENTRICITY":0.00021389,"INCLINATION":86.3918,"RA_OF_ASC_NODE":64.5964,"ARG_OF_PERICENTER":89.2654,"MEAN_ANOMALY":270.8787,"EPHEMERIS_TYPE":0,"CLASSIFICATION_TYPE":"U","NORAD_CAT_ID":42956,"ELEMENT_SET_NO":999,"REV_AT_EPOCH":44126,"BSTAR":6.647577e-6,"MEAN_MOTION_DOT":3.8e-7,"MEAN_MOTION_DDOT":0},{"OBJECT_NAME":"IRIDIUM 122","OBJECT_ID":"2017-061C","EPOCH":"2026-03-14T22:41:34.548864","MEAN_MOTION":14.34217524,"ECCENTRICITY":0.00020792,"INCLINATION":86.3917,"RA_OF_ASC_NODE":64.5802,"ARG_OF_PERICENTER":88.2449,"MEAN_ANOMALY":271.8985,"EPHEMERIS_TYPE":0,"CLASSIFICATION_TYPE":"U","NORAD_CAT_ID":42957,"ELEMENT_SET_NO":999,"REV_AT_EPOCH":44127,"BSTAR":4.34119e-6,"MEAN_MOTION_DOT":3.2e-7,"MEAN_MOTION_DDOT":0},{"OBJECT_NAME":"IRIDIUM 129","OBJECT_ID":"2017-061D","EPOCH":"2026-03-14T21:37:38.604864","MEAN_MOTION":14.34218236,"ECCENTRICITY":0.00024146,"INCLINATION":86.392,"RA_OF_ASC_NODE":64.6653,"ARG_OF_PERICENTER":82.5979,"MEAN_ANOMALY":277.5491,"EPHEMERIS_TYPE":0,"CLASSIFICATION_TYPE":"U","NORAD_CAT_ID":42958,"ELEMENT_SET_NO":999,"REV_AT_EPOCH":44128,"BSTAR":2.6332917e-5,"MEAN_MOTION_DOT":9.4e-7,"MEAN_MOTION_DDOT":0},{"OBJECT_NAME":"IRIDIUM 119","OBJECT_ID":"2017-061E","EPOCH":"2026-03-14T22:32:26.096352","MEAN_MOTION":14.34220112,"ECCENTRICITY":0.00021434,"INCLINATION":86.3919,"RA_OF_ASC_NODE":64.6444,"ARG_OF_PERICENTER":85.1993,"MEAN_ANOMALY":274.9448,"EPHEMERIS_TYPE":0,"CLASSIFICATION_TYPE":"U","NORAD_CAT_ID":42959,"ELEMENT_SET_NO":999,"REV_AT_EPOCH":44130,"BSTAR":6.0435014e-5,"MEAN_MOTION_DOT":1.89e-6,"MEAN_MOTION_DDOT":0},{"OBJECT_NAME":"IRIDIUM 107","OBJECT_ID":"2017-061F","EPOCH":"2026-03-14T21:19:22.572480","MEAN_MOTION":14.34217504,"ECCENTRICITY":0.00017502,"INCLINATION":86.3919,"RA_OF_ASC_NODE":64.6867,"ARG_OF_PERICENTER":91.3622,"MEAN_ANOMALY":268.7774,"EPHEMERIS_TYPE":0,"CLASSIFICATION_TYPE":"U","NORAD_CAT_ID":42960,"ELEMENT_SET_NO":999,"REV_AT_EPOCH":44130,"BSTAR":-4.29911e-6,"MEAN_MOTION_DOT":8.0e-8,"MEAN_MOTION_DDOT":0},{"OBJECT_NAME":"IRIDIUM 132","OBJECT_ID":"2017-061G","EPOCH":"2026-03-14T21:28:30.611136","MEAN_MOTION":14.34217993,"ECCENTRICITY":0.00021374,"INCLINATION":86.3919,"RA_OF_ASC_NODE":64.6639,"ARG_OF_PERICENTER":90.1513,"MEAN_ANOMALY":269.9928,"EPHEMERIS_TYPE":0,"CLASSIFICATION_TYPE":"U","NORAD_CAT_ID":42961,"ELEMENT_SET_NO":999,"REV_AT_EPOCH":44130,"BSTAR":2.2374414e-5,"MEAN_MOTION_DOT":8.2e-7,"MEAN_MOTION_DDOT":0},{"OBJECT_NAME":"IRIDIUM 136","OBJECT_ID":"2017-061H","EPOCH":"2026-03-14T22:14:10.643712","MEAN_MOTION":14.34217489,"ECCENTRICITY":0.00020062,"INCLINATION":86.3922,"RA_OF_ASC_NODE":64.6571,"ARG_OF_PERICENTER":86.7415,"MEAN_ANOMALY":273.401,"EPHEMERIS_TYPE":0,"CLASSIFICATION_TYPE":"U","NORAD_CAT_ID":42962,"ELEMENT_SET_NO":999,"REV_AT_EPOCH":44132,"BSTAR":-4.865402e-6,"MEAN_MOTION_DOT":6.0e-8,"MEAN_MOTION_DDOT":0},{"OBJECT_NAME":"IRIDIUM 139","OBJECT_ID":"2017-061J","EPOCH":"2026-03-14T22:23:18.677184","MEAN_MOTION":14.34217849,"ECCENTRICITY":0.00021473,"INCLINATION":86.3922,"RA_OF_ASC_NODE":64.7147,"ARG_OF_PERICENTER":90.9203,"MEAN_ANOMALY":269.2239,"EPHEMERIS_TYPE":0,"CLASSIFICATION_TYPE":"U","NORAD_CAT_ID":42963,"ELEMENT_SET_NO":999,"REV_AT_EPOCH":44133,"BSTAR":9.289565e-6,"MEAN_MOTION_DOT":4.6e-7,"MEAN_MOTION_DDOT":0},{"OBJECT_NAME":"IRIDIUM 125","OBJECT_ID":"2017-061K","EPOCH":"2026-03-14T22:05:02.508288","MEAN_MOTION":14.34217591,"ECCENTRICITY":0.00016165,"INCLINATION":86.3926,"RA_OF_ASC_NODE":64.7798,"ARG_OF_PERICENTER":77.3343,"MEAN_ANOMALY":282.8034,"EPHEMERIS_TYPE":0,"CLASSIFICATION_TYPE":"U","NORAD_CAT_ID":42964,"ELEMENT_SET_NO":999,"REV_AT_EPOCH":44134,"BSTAR":-5.616735e-6,"MEAN_MOTION_DOT":4.0e-8,"MEAN_MOTION_DDOT":0},{"OBJECT_NAME":"IRIDIUM 135","OBJECT_ID":"2017-083A","EPOCH":"2026-03-14T19:47:18.925440","MEAN_MOTION":14.34216596,"ECCENTRICITY":0.00021861,"INCLINATION":86.4029,"RA_OF_ASC_NODE":1.4503,"ARG_OF_PERICENTER":84.9527,"MEAN_ANOMALY":275.1918,"EPHEMERIS_TYPE":0,"CLASSIFICATION_TYPE":"U","NORAD_CAT_ID":43070,"ELEMENT_SET_NO":999,"REV_AT_EPOCH":43062,"BSTAR":4.2377108e-5,"MEAN_MOTION_DOT":1.38e-6,"MEAN_MOTION_DDOT":0},{"OBJECT_NAME":"IRIDIUM 138","OBJECT_ID":"2017-083B","EPOCH":"2026-03-14T22:04:19.059456","MEAN_MOTION":14.3421884,"ECCENTRICITY":0.00021007,"INCLINATION":86.4042,"RA_OF_ASC_NODE":1.092,"ARG_OF_PERICENTER":73.5069,"MEAN_ANOMALY":286.6357,"EPHEMERIS_TYPE":0,"CLASSIFICATION_TYPE":"U","NORAD_CAT_ID":43071,"ELEMENT_SET_NO":999,"REV_AT_EPOCH":43062,"BSTAR":5.0301968e-5,"MEAN_MOTION_DOT":1.61e-6,"MEAN_MOTION_DDOT":0},{"OBJECT_NAME":"IRIDIUM 116","OBJECT_ID":"2017-083C","EPOCH":"2026-03-14T21:18:39.191040","MEAN_MOTION":14.34218427,"ECCENTRICITY":0.00022292,"INCLINATION":86.4025,"RA_OF_ASC_NODE":1.4109,"ARG_OF_PERICENTER":93.4274,"MEAN_ANOMALY":266.7176,"EPHEMERIS_TYPE":0,"CLASSIFICATION_TYPE":"U","NORAD_CAT_ID":43072,"ELEMENT_SET_NO":999,"REV_AT_EPOCH":43065,"BSTAR":5.3195013e-5,"MEAN_MOTION_DOT":1.69e-6,"MEAN_MOTION_DDOT":0},{"OBJECT_NAME":"IRIDIUM 130","OBJECT_ID":"2017-083D","EPOCH":"2026-03-14T22:13:27.099840","MEAN_MOTION":14.34218093,"ECCENTRICITY":0.00019685,"INCLINATION":86.4035,"RA_OF_ASC_NODE":1.661,"ARG_OF_PERICENTER":91.9738,"MEAN_ANOMALY":268.1683,"EPHEMERIS_TYPE":0,"CLASSIFICATION_TYPE":"U","NORAD_CAT_ID":43073,"ELEMENT_SET_NO":999,"REV_AT_EPOCH":43060,"BSTAR":9.449713e-6,"MEAN_MOTION_DOT":4.6e-7,"MEAN_MOTION_DDOT":0}]
